OBJECT_NAME,OBJECT_ID,EPOCH,MEAN_MOTION,ECCENTRICITY,INCLINATION,RA_OF_ASC_NODE,ARG_OF_PERICENTER,MEAN_ANOMALY,EPHEMERIS_TYPE,CLASSIFICATION_TYPE,NORAD_CAT_ID,ELEMENT_SET_NO,REV_AT_EPOCH,BSTAR,MEAN_MOTION_DOT,MEAN_MOTION_DDOT
ONEWEB-0410,2022-012A,2026-07-17T21:29:29.565312,13.17650155,.00015811,87.9159,359.7509,48.3304,311.7963,0,U,51622,999,21774,.35453352E-4,.27E-6,0
ONEWEB-0411,2022-012B,2026-07-17T11:31:09.414048,13.10374310,.0002341,87.8821,30.2313,95.0233,265.1162,0,U,51623,999,21325,-.17316E-2,-.592E-5,0
ONEWEB-0415,2022-012C,2026-07-17T22:25:59.766528,13.10371192,.00021427,87.8818,30.1383,87.1752,272.9621,0,U,51624,999,21331,-.17798145E-2,-.609E-5,0
ONEWEB-0416,2022-012D,2026-07-17T22:43:06.241728,13.10375390,.00021542,87.8813,30.1526,83.5605,276.5767,0,U,51625,999,21335,-.19178239E-2,-.657E-5,0
ONEWEB-0422,2022-012E,2026-07-17T21:44:04.556256,13.17648408,.00019802,87.9158,359.7492,113.7597,246.3743,0,U,51626,999,21785,-.14680009E-4,.7E-7,0
ONEWEB-0423,2022-012F,2026-07-17T21:34:21.821952,13.17648492,.00017901,87.9150,359.7542,93.2594,266.8742,0,U,51627,999,21774,.11874E-3,.59E-6,0
ONEWEB-0425,2022-012G,2026-07-17T22:57:41.110848,13.10426924,.0001147,87.8822,30.1346,52.4618,307.6613,0,U,51628,999,21335,-.64889441E-2,-.2254E-4,0
ONEWEB-0428,2022-012H,2026-07-17T02:18:55.929888,13.10374733,.0001806,87.8811,30.3128,88.3692,271.7642,0,U,51629,999,21320,-.16277E-2,-.556E-5,0
ONEWEB-0431,2022-012J,2026-07-17T01:34:46.302816,13.10371954,.0002414,87.8816,30.3117,96.2500,263.8902,0,U,51630,999,21325,.17742E-2,.632E-5,0
ONEWEB-0434,2022-012K,2026-07-17T12:03:08.782272,13.10377713,.0001508,87.8824,30.2511,69.0683,291.0606,0,U,51631,999,21329,-.21866E-3,-.64E-6,0
ONEWEB-0435,2022-012L,2026-07-17T21:22:28.921728,13.10379474,.00019181,87.8817,30.1573,98.0824,262.0521,0,U,51632,999,21333,.54461006E-3,.203E-5,0
ONEWEB-0436,2022-012M,2026-07-17T21:22:12.595584,13.17647816,.0001937,87.9155,359.7397,99.4555,260.6795,0,U,51633,999,21772,.13185056E-3,.64E-6,0
ONEWEB-0438,2022-012N,2026-07-17T22:50:25.044864,13.10375291,.00017813,87.8815,30.1493,81.0625,279.0704,0,U,51634,999,21337,-.21129033E-2,-.725E-5,0
ONEWEB-0439,2022-012P,2026-07-17T22:55:19.221312,13.10377176,.0001742,87.8820,30.1362,86.9236,273.2090,0,U,51635,999,21335,-.12192985E-2,-.413E-5,0
ONEWEB-0442,2022-012Q,2026-07-17T21:11:16.913760,13.17650790,.00016548,87.9147,359.7715,75.0886,285.0429,0,U,51636,999,21771,.64520623E-4,.38E-6,0
ONEWEB-0443,2022-012R,2026-07-17T21:39:13.030560,13.17647621,.0001538,87.9149,359.7687,99.2941,260.8365,0,U,51637,999,21776,.60064459E-4,.36E-6,0
ONEWEB-0444,2022-012S,2026-07-17T11:40:55.034976,13.10374233,.0001663,87.8819,30.2281,91.3776,268.7542,0,U,51638,999,21330,-.23401E-2,-.804E-5,0
ONEWEB-0445,2022-012T,2026-07-17T12:10:14.932128,13.10379897,.000193,87.8825,30.2141,86.1012,274.0336,0,U,51639,999,21331,.68148E-3,.251E-5,0
ONEWEB-0446,2022-012U,2026-07-17T22:38:11.952960,13.10371669,.00021041,87.8816,30.1542,82.3713,277.7653,0,U,51640,999,21335,-.19359652E-2,-.663E-5,0
ONEWEB-0448,2022-012V,2026-07-17T22:45:31.830048,13.10374638,.0001795,87.8815,30.1486,88.6320,271.5013,0,U,51641,999,21332,-.24425194E-2,-.84E-5,0
ONEWEB-0449,2022-012W,2026-07-17T22:52:51.902400,13.10374747,.00017904,87.8822,30.1351,68.8552,291.2767,0,U,51642,999,21333,-.17692527E-2,-.605E-5,0
ONEWEB-0451,2022-012X,2026-07-17T21:17:20.211072,13.17650598,.00016747,87.9158,359.7387,89.5908,270.5416,0,U,51643,999,21770,-.9635427E-4,-.25E-6,0
ONEWEB-0452,2022-012Y,2026-07-17T21:14:55.278528,13.17647216,.00015709,87.9147,359.7731,93.0007,267.1304,0,U,51644,999,21771,.58017308E-4,.35E-6,0
ONEWEB-0456,2022-012AA,2026-07-17T06:35:29.385024,13.10375412,.0001824,87.8832,30.2596,92.6186,267.5151,0,U,51646,999,21328,.47723E-4,.29E-6,0
ONEWEB-0457,2022-012AB,2026-07-17T22:33:07.303104,13.10371177,.00020632,87.8815,30.1422,78.9450,281.1909,0,U,51647,999,21337,-.17358262E-2,-.593E-5,0
ONEWEB-0458,2022-012AC,2026-07-17T19:23:58.020288,13.10376263,.00016204,87.8823,30.1571,87.3231,272.8081,0,U,51648,999,21331,-.41786819E-3,-.133E-5,0
ONEWEB-0461,2022-012AD,2026-07-17T21:46:30.405504,13.17650599,.00019214,87.9159,359.7482,90.3693,269.7658,0,U,51649,999,21793,-.1195521E-5,.12E-6,0
ONEWEB-0463,2022-012AE,2026-07-17T21:19:46.453440,13.17650604,.0001968,87.9148,359.7716,90.3173,269.8184,0,U,51650,999,21771,.45430719E-4,.31E-6,0
ONEWEB-0464,2022-012AF,2026-07-17T19:20:18.357792,13.10376078,.00016183,87.8817,30.1785,94.9231,265.2081,0,U,51651,999,21333,-.6354683E-3,-.209E-5,0
ONEWEB-0468,2022-012AG,2026-07-17T19:27:37.250784,13.10375335,.00017073,87.8816,30.1705,95.1704,264.9619,0,U,51652,999,21331,.11686849E-3,.53E-6,0
