ONEWEB-0410             
1 51622U 22012A   26198.89548108  .00000027  00000+0  35453-4 0  9994
2 51622  87.9159 359.7509 0001581  48.3304 311.7963 13.17650155217747
ONEWEB-0411             
1 51623U 22012B   26198.47997007 -.00000592  00000+0 -17316-2 0  9990
2 51623  87.8821  30.2313 0002341  95.0233 265.1162 13.10374310213256
ONEWEB-0415             
1 51624U 22012C   26198.93471952 -.00000609  00000+0 -17798-2 0  9991
2 51624  87.8818  30.1383 0002142  87.1752 272.9621 13.10371192213314
ONEWEB-0416             
1 51625U 22012D   26198.94660002 -.00000657  00000+0 -19178-2 0  9996
2 51625  87.8813  30.1526 0002154  83.5605 276.5767 13.10375390213358
ONEWEB-0422             
1 51626U 22012E   26198.90560829  .00000007  00000+0 -14680-4 0  9992
2 51626  87.9158 359.7492 0001980 113.7597 246.3743 13.17648408217854
ONEWEB-0423             
1 51627U 22012F   26198.89886368  .00000059  00000+0  11874-3 0  9997
2 51627  87.9150 359.7542 0001790  93.2594 266.8742 13.17648492217748
ONEWEB-0425             
1 51628U 22012G   26198.95672582 -.00002254  00000+0 -64889-2 0  9990
2 51628  87.8822  30.1346 0001147  52.4618 307.6613 13.10426924213357
ONEWEB-0428             
1 51629U 22012H   26198.09648067 -.00000556  00000+0 -16277-2 0  9998
2 51629  87.8811  30.3128 0001806  88.3692 271.7642 13.10374733213205
ONEWEB-0431             
1 51630U 22012J   26198.06581369  .00000632  00000+0  17742-2 0  9999
2 51630  87.8816  30.3117 0002414  96.2500 263.8902 13.10371954213250
ONEWEB-0434             
1 51631U 22012K   26198.50218498 -.00000064  00000+0 -21866-3 0  9993
2 51631  87.8824  30.2511 0001508  69.0683 291.0606 13.10377713213297
ONEWEB-0435             
1 51632U 22012L   26198.89061252  .00000203  00000+0  54461-3 0  9990
2 51632  87.8817  30.1573 0001918  98.0824 262.0521 13.10379474213336
ONEWEB-0436             
1 51633U 22012M   26198.89042356  .00000064  00000+0  13185-3 0  9998
2 51633  87.9155 359.7397 0001937  99.4555 260.6795 13.17647816217723
ONEWEB-0438             
1 51634U 22012N   26198.95167876 -.00000725  00000+0 -21129-2 0  9993
2 51634  87.8815  30.1493 0001781  81.0625 279.0704 13.10375291213374
ONEWEB-0439             
1 51635U 22012P   26198.95508358 -.00000413  00000+0 -12193-2 0  9993
2 51635  87.8820  30.1362 0001742  86.9236 273.2090 13.10377176213351
ONEWEB-0442             
1 51636U 22012Q   26198.88283465  .00000038  00000+0  64521-4 0  9990
2 51636  87.9147 359.7715 0001654  75.0886 285.0429 13.17650790217713
ONEWEB-0443             
1 51637U 22012R   26198.90223415  .00000036  00000+0  60064-4 0  9999
2 51637  87.9149 359.7687 0001538  99.2941 260.8365 13.17647621217769
ONEWEB-0444             
1 51638U 22012S   26198.48674809 -.00000804  00000+0 -23401-2 0  9997
2 51638  87.8819  30.2281 0001663  91.3776 268.7542 13.10374233213301
ONEWEB-0445             
1 51639U 22012T   26198.50711727  .00000251  00000+0  68148-3 0  9994
2 51639  87.8825  30.2141 0001930  86.1012 274.0336 13.10379897213319
ONEWEB-0446             
1 51640U 22012U   26198.94319390 -.00000663  00000+0 -19360-2 0  9994
2 51640  87.8816  30.1542 0002104  82.3713 277.7653 13.10371669213350
ONEWEB-0448             
1 51641U 22012V   26198.94828507 -.00000840  00000+0 -24425-2 0  9995
2 51641  87.8815  30.1486 0001795  88.6320 271.5013 13.10374638213323
ONEWEB-0449             
1 51642U 22012W   26198.95337850 -.00000605  00000+0 -17693-2 0  9991
2 51642  87.8822  30.1351 0001790  68.8552 291.2767 13.10374747213332
ONEWEB-0451             
1 51643U 22012X   26198.88703948 -.00000025  00000+0 -96354-4 0  9998
2 51643  87.9158 359.7387 0001674  89.5908 270.5416 13.17650598217705
ONEWEB-0452             
1 51644U 22012Y   26198.88536202  .00000035  00000+0  58017-4 0  9999
2 51644  87.9147 359.7731 0001570  93.0007 267.1304 13.17647216217714
ONEWEB-0456             
1 51646U 22012AA  26198.27464566  .00000029  00000+0  47723-4 0  9992
2 51646  87.8832  30.2596 0001824  92.6186 267.5151 13.10375412213282
ONEWEB-0457             
1 51647U 22012AB  26198.93966786 -.00000593  00000+0 -17358-2 0  9994
2 51647  87.8815  30.1422 0002063  78.9450 281.1909 13.10371177213375
ONEWEB-0458             
1 51648U 22012AC  26198.80831042 -.00000133  00000+0 -41787-3 0  9991
2 51648  87.8823  30.1571 0001620  87.3231 272.8081 13.10376263213312
ONEWEB-0461             
1 51649U 22012AD  26198.90729636  .00000012  00000+0 -11955-5 0  9999
2 51649  87.9159 359.7482 0001921  90.3693 269.7658 13.17650599217938
ONEWEB-0463             
1 51650U 22012AE  26198.88873210  .00000031  00000+0  45431-4 0  9991
2 51650  87.9148 359.7716 0001968  90.3173 269.8184 13.17650604217710
ONEWEB-0464             
1 51651U 22012AF  26198.80576803 -.00000209  00000+0 -63547-3 0  9998
2 51651  87.8817  30.1785 0001618  94.9231 265.2081 13.10376078213339
ONEWEB-0468             
1 51652U 22012AG  26198.81084781  .00000053  00000+0  11687-3 0  9992
2 51652  87.8816  30.1705 0001707  95.1704 264.9619 13.10375335213314
